NOAA 1                  
1 04793U 70106A   26088.11482150 -.00000030  00000+0  76324-4 0  9992
2 04793 101.3471 126.3225 0032012 143.0609 283.8301 12.54049530530651
NOAA 2 (ITOS-D)         
1 06235U 72082A   26088.04586316 -.00000019  00000+0  17109-3 0  9993
2 06235 102.0148 105.7224 0003777 326.8428  53.9200 12.53212462444911
NOAA 3                  
1 06920U 73086A   26087.94833094 -.00000017  00000+0  21919-3 0  9997
2 06920 102.2895 101.1145 0006174 272.1688 152.6335 12.40392287371959
NOAA 4                  
1 07529U 74089A   26088.02585987 -.00000021  00000+0  15971-3 0  9998
2 07529 102.0063  99.9646 0008907 352.1261  29.5064 12.53202086349487
NOAA 5                  
1 09057U 76077A   26088.22576172 -.00000018  00000+0  21235-3 0  9999
2 09057 102.2985  73.8376 0010020 124.8900 246.1278 12.37829088244582
TIROS N                 
1 11060U 78096A   26088.05678442  .00000182  00000+0  10613-3 0  9992
2 11060  98.4609 112.7158 0011552 112.9495 247.2902 14.19346874667389
NOAA 6                  
1 11416U 79057A   26088.06899697  .00000339  00000+0  13340-3 0  9997
2 11416  98.5721 118.1029 0010765 131.7954 228.4152 14.35447708439461
NOAA 7                  
1 12553U 81059A   26088.13923262  .00000058  00000+0  50058-4 0  9995
2 12553  98.8022 156.0219 0012265 134.0361 226.1826 14.17777320313402
NOAA 8                  
1 13923U 83022A   26087.93913401  .00000170  00000+0  83579-4 0  9999
2 13923  98.7364 100.8002 0015640 130.7266 229.5277 14.29774220239601
NOAA 9                  
1 15427U 84123A   26088.06279733  .00000119  00000+0  82306-4 0  9991
2 15427  99.1073 112.8165 0014115 213.5010 205.1188 14.17045254132079
NOAA 10                 
1 16969U 86073A   26088.20730848  .00000180  00000+0  88360-4 0  9998
2 16969  98.7017  81.5641 0011181 226.6060 144.9573 14.29152076 57994
NOAA 11                 
1 19531U 88089A   26088.07948473  .00000057  00000+0  50382-4 0  9991
2 19531  98.6126  36.4696 0011290 162.5345 197.6220 14.15825111936145
NOAA 12                 
1 21263U 91032A   26088.10950730  .00000140  00000+0  75808-4 0  9994
2 21263  98.6173  77.8112 0012483 261.9527  98.0237 14.26723722813542
NOAA 13                 
1 22739U 93050A   26088.11394142  .00000117  00000+0  84870-4 0  9998
2 22739  98.6963  35.3224 0009587   5.1611 354.9659 14.13642657682060
NOAA 14                 
1 23455U 94089A   26088.13233355  .00000087  00000+0  66984-4 0  9999
2 23455  98.5054  61.4280 0008710 319.5569  40.4957 14.14659683611887
NOAA 15                 
1 25338U 98030A   26088.11954714  .00000188  00000+0  94660-4 0  9992
2 25338  98.5139 110.8918 0009533 216.7423 143.3106 14.27120352449878
NOAA 16                 
1 26536U 00055A   26088.12957895  .00000137  00000+0  93540-4 0  9997
2 26536  98.4685 106.6182 0010690 165.1018 195.0473 14.13903614612411
NOAA 17                 
1 27453U 02032A   26088.17922811  .00000271  00000+0  13225-3 0  9998
2 27453  98.8575  53.0194 0010847 219.7976 140.2409 14.26200386235583
NOAA 18                 
1 28654U 05018A   26088.21730583  .00000068  00000+0  59065-4 0  9994
2 28654  98.8130 169.0486 0014547  22.7420 337.4394 14.13714770 75019
NOAA 19                 
1 33591U 09005A   26088.20196738  .00000041  00000+0  45722-4 0  9993
2 33591  98.9571 159.0025 0012745 255.0943 104.8818 14.13460532883188
SUOMI NPP               
1 37849U 11061A   26088.12688515  .00000076  00000+0  57173-4 0  9999
2 37849  98.7894  29.5773 0001693 158.3691 201.7557 14.19498561747084
NOAA 20 (JPSS-1)        
1 43013U 17073A   26088.14130129  .00000102  00000+0  69080-4 0  9993
2 43013  98.7714  28.3377 0001899 111.4734 248.6645 14.19541157433112
NOAA 21 (JPSS-2)        
1 54234U 22150A   26088.17579030  .00000101  00000+0  68655-4 0  9999
2 54234  98.7576  28.2210 0002751  72.6688 287.4789 14.19557313175196
